{"type": "FeatureCollection", "features": [ {"type": "Feature", "properties": {"norad_id": 30435, "name": "FENGYUN 1C DEB", "group": "fengyun-1c-debris", "lat": -8.584143114584842, "lon": -28.591700212868446, "alt_km": 1063.0338764811086, "timestamp": "2025-12-09T14:52:26.438193+00:00", "meta": {"OBJECT_NAME": "FENGYUN 1C DEB", "OBJECT_ID": "1999-025AEW", "EPOCH": "2025-12-09T05:05:05.777952", "MEAN_MOTION": 13.79601533, "ECCENTRICITY": 0.02073897, "INCLINATION": 99.0171, "RA_OF_ASC_NODE": 329.6461, "ARG_OF_PERICENTER": 121.4701, "MEAN_ANOMALY": 7.1531, "EPHEMERIS_TYPE": 0, "CLASSIFICATION_TYPE": "U", "NORAD_CAT_ID": 30435, "ELEMENT_SET_NO": 999, "REV_AT_EPOCH": 94111, "BSTAR": 0.0022304568, "MEAN_MOTION_DOT": 2.664e-05, "MEAN_MOTION_DDOT": 0}, "tle": {"line1": "1 30435U 99025AEW 25343.21187243  .00002664  00000+0  22305-2 0  9996", "line2": "2 30435  99.0171 329.6461 0207389 121.4701   7.1531 13.79601533941111"}}, "geometry": {"type": "Point", "coordinates": [-28.591700212868446, -8.584143114584842]}}, {"type": "Feature", "properties": {"norad_id": 30436, "name": "FENGYUN 1C DEB", "group": "fengyun-1c-debris", "lat": -72.07844981715064, "lon": -94.96545928040084, "alt_km": 880.7092908341565, "timestamp": "2025-12-09T14:52:26.438204+00:00", "meta": {"OBJECT_NAME": "FENGYUN 1C DEB", "OBJECT_ID": "1999-025AEX", "EPOCH": "2025-12-09T07:13:56.493984", "MEAN_MOTION": 14.22241805, "ECCENTRICITY": 0.00971019, "INCLINATION": 98.4258, "RA_OF_ASC_NODE": 237.4518, "ARG_OF_PERICENTER": 143.7064, "MEAN_ANOMALY": 312.214, "EPHEMERIS_TYPE": 0, "CLASSIFICATION_TYPE": "U", "NORAD_CAT_ID": 30436, "ELEMENT_SET_NO": 999, "REV_AT_EPOCH": 96388, "BSTAR": 0.0028900871, "MEAN_MOTION_DOT": 6.696e-05, "MEAN_MOTION_DDOT": 0}, "tle": {"line1": "1 30436U 99025AEX 25343.30134831  .00006696  00000+0  28901-2 0  9999", "line2": "2 30436  98.4258 237.4518 0097101 143.7064 312.2140 14.22241805963883"}}, "geometry": {"type": "Point", "coordinates": [-94.96545928040084, -72.07844981715064]}}, {"type": "Feature", "properties": {"norad_id": 30437, "name": "FENGYUN 1C DEB", "group": "fengyun-1c-debris", "lat": -6.919828219785139, "lon": 4.090095009201658, "alt_km": 620.560570139146, "timestamp": "2025-12-09T14:52:26.438214+00:00", "meta": {"OBJECT_NAME": "FENGYUN 1C DEB", "OBJECT_ID": "1999-025AEY", "EPOCH": "2025-12-09T00:37:15.326112", "MEAN_MOTION": 14.8778472, "ECCENTRICITY": 0.00360424, "INCLINATION": 98.9222, "RA_OF_ASC_NODE": 2.3303, "ARG_OF_PERICENTER": 113.5202, "MEAN_ANOMALY": 300.9938, "EPHEMERIS_TYPE": 0, "CLASSIFICATION_TYPE": "U", "NORAD_CAT_ID": 30437, "ELEMENT_SET_NO": 999, "REV_AT_EPOCH": 99132, "BSTAR": 0.0027751347, "MEAN_MOTION_DOT": 0.00025657, "MEAN_MOTION_DDOT": 0}, "tle": {"line1": "1 30437U 99025AEY 25343.02587183  .00025657  00000+0  27751-2 0  9991", "line2": "2 30437  98.9222   2.3303 0036042 113.5202 300.9938 14.87784720991325"}}, "geometry": {"type": "Point", "coordinates": [4.090095009201658, -6.919828219785139]}}, {"type": "Feature", "properties": {"norad_id": 30438, "name": "FENGYUN 1C DEB", "group": "fengyun-1c-debris", "lat": 19.987149520584857, "lon": -175.966307146408, "alt_km": 841.0005377723874, "timestamp": "2025-12-09T14:52:26.438224+00:00", "meta": {"OBJECT_NAME": "FENGYUN 1C DEB", "OBJECT_ID": "1999-025AEZ", "EPOCH": "2025-12-09T00:18:11.587104", "MEAN_MOTION": 13.92080859, "ECCENTRICITY": 0.01346959, "INCLINATION": 98.7507, "RA_OF_ASC_NODE": 0.249, "ARG_OF_PERICENTER": 197.0273, "MEAN_ANOMALY": 162.6345, "EPHEMERIS_TYPE": 0, "CLASSIFICATION_TYPE": "U", "NORAD_CAT_ID": 30438, "ELEMENT_SET_NO": 999, "REV_AT_EPOCH": 95254, "BSTAR": 0.0014407697, "MEAN_MOTION_DOT": 1.943e-05, "MEAN_MOTION_DDOT": 0}, "tle": {"line1": "1 30438U 99025AEZ 25343.01263411  .00001943  00000+0  14408-2 0  9993", "line2": "2 30438  98.7507   0.2490 0134695 197.0273 162.6345 13.92080859952545"}}, "geometry": {"type": "Point", "coordinates": [-175.966307146408, 19.987149520584857]}}, {"type": "Feature", "properties": {"norad_id": 30439, "name": "FENGYUN 1C DEB", "group": "fengyun-1c-debris", "lat": -77.09057229796561, "lon": 133.20856074221234, "alt_km": 868.2373333254845, "timestamp": "2025-12-09T14:52:26.438234+00:00", "meta": {"OBJECT_NAME": "FENGYUN 1C DEB", "OBJECT_ID": "1999-025AFA", "EPOCH": "2025-12-09T00:15:41.263200", "MEAN_MOTION": 14.08830086, "ECCENTRICITY": 0.00389704, "INCLINATION": 98.7501, "RA_OF_ASC_NODE": 354.8354, "ARG_OF_PERICENTER": 347.4271, "MEAN_ANOMALY": 67.2014, "EPHEMERIS_TYPE": 0, "CLASSIFICATION_TYPE": "U", "NORAD_CAT_ID": 30439, "ELEMENT_SET_NO": 999, "REV_AT_EPOCH": 96739, "BSTAR": 0.0006115991, "MEAN_MOTION_DOT": 1.02e-05, "MEAN_MOTION_DDOT": 0}, "tle": {"line1": "1 30439U 99025AFA 25343.01089425  .00001020  00000+0  61160-3 0  9999", "line2": "2 30439  98.7501 354.8354 0038970 347.4271  67.2014 14.08830086967390"}}, "geometry": {"type": "Point", "coordinates": [133.20856074221234, -77.09057229796561]}}, {"type": "Feature", "properties": {"norad_id": 30441, "name": "FENGYUN 1C DEB", "group": "fengyun-1c-debris", "lat": -75.66489007771594, "lon": -145.92056518334425, "alt_km": 845.4032670560928, "timestamp": "2025-12-09T14:52:26.438245+00:00", "meta": {"OBJECT_NAME": "FENGYUN 1C DEB", "OBJECT_ID": "1999-025AFC", "EPOCH": "2025-12-09T04:53:40.905024", "MEAN_MOTION": 13.77671052, "ECCENTRICITY": 0.01836877, "INCLINATION": 99.135, "RA_OF_ASC_NODE": 72.7015, "ARG_OF_PERICENTER": 267.0882, "MEAN_ANOMALY": 90.9236, "EPHEMERIS_TYPE": 0, "CLASSIFICATION_TYPE": "U", "NORAD_CAT_ID": 30441, "ELEMENT_SET_NO": 999, "REV_AT_EPOCH": 94821, "BSTAR": 0.00084515849, "MEAN_MOTION_DOT": 9.12e-06, "MEAN_MOTION_DDOT": 0}, "tle": {"line1": "1 30441U 99025AFC 25343.20394566  .00000912  00000+0  84516-3 0  9997", "line2": "2 30441  99.1350  72.7015 0183687 267.0882  90.9236 13.77671052948211"}}, "geometry": {"type": "Point", "coordinates": [-145.92056518334425, -75.66489007771594]}}, {"type": "Feature", "properties": {"norad_id": 30442, "name": "FENGYUN 1C DEB", "group": "fengyun-1c-debris", "lat": 78.66126547115853, "lon": -51.71666700520136, "alt_km": 825.9862707468446, "timestamp": "2025-12-09T14:52:26.438272+00:00", "meta": {"OBJECT_NAME": "FENGYUN 1C DEB", "OBJECT_ID": "1999-025AFD", "EPOCH": "2025-12-09T06:00:53.439264", "MEAN_MOTION": 14.28553277, "ECCENTRICITY": 0.00544813, "INCLINATION": 98.8664, "RA_OF_ASC_NODE": 76.7903, "ARG_OF_PERICENTER": 297.7958, "MEAN_ANOMALY": 61.7706, "EPHEMERIS_TYPE": 0, "CLASSIFICATION_TYPE": "U", "NORAD_CAT_ID": 30442, "ELEMENT_SET_NO": 999, "REV_AT_EPOCH": 97112, "BSTAR": 0.0029951143, "MEAN_MOTION_DOT": 7.593e-05, "MEAN_MOTION_DDOT": 0}, "tle": {"line1": "1 30442U 99025AFD 25343.25061851  .00007593  00000+0  29951-2 0  9994", "line2": "2 30442  98.8664  76.7903 0054481 297.7958  61.7706 14.28553277971128"}}, "geometry": {"type": "Point", "coordinates": [-51.71666700520136, 78.66126547115853]}}, {"type": "Feature", "properties": {"norad_id": 30443, "name": "FENGYUN 1C DEB", "group": "fengyun-1c-debris", "lat": 9.390279256306405, "lon": 112.12699728252196, "alt_km": 791.0659411520792, "timestamp": "2025-12-09T14:52:26.438285+00:00", "meta": {"OBJECT_NAME": "FENGYUN 1C DEB", "OBJECT_ID": "1999-025AFE", "EPOCH": "2025-12-09T07:23:50.773920", "MEAN_MOTION": 14.3671533, "ECCENTRICITY": 0.00281285, "INCLINATION": 98.8485, "RA_OF_ASC_NODE": 290.3308, "ARG_OF_PERICENTER": 348.6053, "MEAN_ANOMALY": 11.4492, "EPHEMERIS_TYPE": 0, "CLASSIFICATION_TYPE": "U", "NORAD_CAT_ID": 30443, "ELEMENT_SET_NO": 999, "REV_AT_EPOCH": 97384, "BSTAR": 0.0035265436, "MEAN_MOTION_DOT": 0.0001041, "MEAN_MOTION_DDOT": 0}, "tle": {"line1": "1 30443U 99025AFE 25343.30822655  .00010410  00000+0  35265-2 0  9995", "line2": "2 30443  98.8485 290.3308 0028128 348.6053  11.4492 14.36715330973848"}}, "geometry": {"type": "Point", "coordinates": [112.12699728252196, 9.390279256306405]}}, {"type": "Feature", "properties": {"norad_id": 30445, "name": "FENGYUN 1C DEB", "group": "fengyun-1c-debris", "lat": 17.548855392526736, "lon": -67.98944809996065, "alt_km": 655.8357703572456, "timestamp": "2025-12-09T14:52:26.438295+00:00", "meta": {"OBJECT_NAME": "FENGYUN 1C DEB", "OBJECT_ID": "1999-025AFG", "EPOCH": "2025-12-09T03:11:26.848896", "MEAN_MOTION": 14.48708771, "ECCENTRICITY": 0.01062049, "INCLINATION": 98.8352, "RA_OF_ASC_NODE": 294.3207, "ARG_OF_PERICENTER": 29.098, "MEAN_ANOMALY": 331.6074, "EPHEMERIS_TYPE": 0, "CLASSIFICATION_TYPE": "U", "NORAD_CAT_ID": 30445, "ELEMENT_SET_NO": 999, "REV_AT_EPOCH": 99132, "BSTAR": 0.0010108987, "MEAN_MOTION_DOT": 4.041e-05, "MEAN_MOTION_DDOT": 0}, "tle": {"line1": "1 30445U 99025AFG 25343.13294964  .00004041  00000+0  10109-2 0  9997", "line2": "2 30445  98.8352 294.3207 0106204  29.0980 331.6074 14.48708771991326"}}, "geometry": {"type": "Point", "coordinates": [-67.98944809996065, 17.548855392526736]}}, {"type": "Feature", "properties": {"norad_id": 30446, "name": "FENGYUN 1C DEB", "group": "fengyun-1c-debris", "lat": -23.106818851368086, "lon": -117.6283121713229, "alt_km": 750.9578121865861, "timestamp": "2025-12-09T14:52:26.438306+00:00", "meta": {"OBJECT_NAME": "FENGYUN 1C DEB", "OBJECT_ID": "1999-025AFH", "EPOCH": "2025-12-09T03:57:57.830688", "MEAN_MOTION": 14.44654788, "ECCENTRICITY": 0.00351301, "INCLINATION": 98.6139, "RA_OF_ASC_NODE": 65.6195, "ARG_OF_PERICENTER": 108.915, "MEAN_ANOMALY": 251.5854, "EPHEMERIS_TYPE": 0, "CLASSIFICATION_TYPE": "U", "NORAD_CAT_ID": 30446, "ELEMENT_SET_NO": 999, "REV_AT_EPOCH": 98125, "BSTAR": 0.0021999921, "MEAN_MOTION_DOT": 7.641e-05, "MEAN_MOTION_DDOT": 0}, "tle": {"line1": "1 30446U 99025AFH 25343.16525267  .00007641  00000+0  22000-2 0  9996", "line2": "2 30446  98.6139  65.6195 0035130 108.9150 251.5854 14.44654788981259"}}, "geometry": {"type": "Point", "coordinates": [-117.6283121713229, -23.106818851368086]}}]}